stk.v.4.3 

BEGIN Ephemeris 
 
NumberOfEphemerisPoints		146 
ScenarioEpoch	    3 Sep 2020 17:55:48.909509182 
InterpolationMethod		Lagrange 
InterpolationOrder		5 
CentralBody				Earth 
CoordinateSystem			TEME 
CoordinateSystemEpoch	  3 Sep 2020 17:55:48.909509182 
DistanceUnit			Kilometers 
 
EphemerisTimePosVel 
 
       0.00000000   -2836.71670170   -6564.95349039       0.04953767  0.435071161 -0.176810943  7.452808020
 END Ephemeris 
